{
    "links": {
        "self": "http://www.neowsapp.com/rest/v1/neo/3304562?api_key=iIulBulltgU6a56xZRHN4H3l9WmuAYTsLGpBGhQ2"
    },
    "id": "3304562",
    "neo_reference_id": "3304562",
    "name": "(2005 WO3)",
    "designation": "2005 WO3",
    "nasa_jpl_url": "http://ssd.jpl.nasa.gov/sbdb.cgi?sstr=3304562",
    "absolute_magnitude_h": 23.5,
    "estimated_diameter": {
        "kilometers": {
            "estimated_diameter_min": 0.0530340723,
            "estimated_diameter_max": 0.1185877909
        },
        "meters": {
            "estimated_diameter_min": 53.0340723319,
            "estimated_diameter_max": 118.5877908577
        },
        "miles": {
            "estimated_diameter_min": 0.0329538346,
            "estimated_diameter_max": 0.0736870142
        },
        "feet": {
            "estimated_diameter_min": 173.9963058693,
            "estimated_diameter_max": 389.0675677576
        }
    },
    "is_potentially_hazardous_asteroid": false,
    "close_approach_data": [
        {
            "close_approach_date": "2005-11-18",
            "close_approach_date_full": "2005-Nov-18 16:14",
            "epoch_date_close_approach": 1132330440000,
            "relative_velocity": {
                "kilometers_per_second": "13.3021011472",
                "kilometers_per_hour": "47887.5641298376",
                "miles_per_hour": "29755.4700561205"
            },
            "miss_distance": {
                "astronomical": "0.1151159531",
                "lunar": "44.7801057559",
                "kilometers": "17221101.386779897",
                "miles": "10700696.2038686986"
            },
            "orbiting_body": "Earth"
        }
    ],
    "orbital_data": {
        "orbit_id": "7",
        "orbit_determination_date": "2017-04-06 09:09:48",
        "first_observation_date": "2005-11-25",
        "last_observation_date": "2005-11-30",
        "data_arc_in_days": 5,
        "observations_used": 19,
        "orbit_uncertainty": "9",
        "minimum_orbit_intersection": ".105847",
        "jupiter_tisserand_invariant": "4.279",
        "epoch_osculation": "2453701.5",
        "eccentricity": ".3503479981098372",
        "semi_major_axis": "1.561271801551725",
        "inclination": "22.75197127139649",
        "ascending_node_longitude": "64.20356184939223",
        "orbital_period": "712.551404942125",
        "perihelion_distance": "1.014283351372739",
        "perihelion_argument": "312.3473060734059",
        "aphelion_distance": "2.108260251730711",
        "perihelion_time": "2453654.069448191872",
        "mean_anomaly": "23.9631815087263",
        "mean_motion": ".5052267071583979",
        "equinox": "J2000",
        "orbit_class": {
            "orbit_class_type": "APO",
            "orbit_class_description": "Near-Earth asteroid orbits which cross the Earth’s orbit similar to that of 1862 Apollo",
            "orbit_class_range": "a (semi-major axis) > 1.0 AU; q (perihelion) < 1.017 AU"
        }
    },
    "is_sentry_object": false
}